GPS BIIR-4  (PRN 20)    
1 26360U 00025A   17346.47599866  .00000069  00000-0  00000+0 0  9993
2 26360  53.1536 147.4519 0044114 100.0624 228.2270  2.00552381128910
